[
    {
        "Altitude(m)": 617719.7524156767,
        "Argument of Periapsis(deg)": 0.0,
        "Eccentricity": 0.0,
        "Inclination(deg)": 60.0,
        "Latitude(deg)": -41.10258994822509,
        "Longitude(deg)": -179.90545895296762,
        "Mean Anomaly(deg)": 229.09090000000003,
        "RAAN(deg)": 70.0,
        "Satellite Name": "Test1 322",
        "Satellite Number": 322,
        "Semi-Major Axis(m)": 6980739.136638005,
        "Time(s)": 0
    },
    {
        "Altitude(m)": 617911.2886809754,
        "Argument of Periapsis(deg)": 0.00010418945913296404,
        "Eccentricity": 0.0,
        "Inclination(deg)": 60.0,
        "Latitude(deg)": -41.56578300754025,
        "Longitude(deg)": -179.40105453098732,
        "Mean Anomaly(deg)": 229.71100614546188,
        "RAAN(deg)": 69.99957995086027,
        "Satellite Name": "Test1 322",
        "Satellite Number": 322,
        "Semi-Major Axis(m)": 6980739.136638005,
        "Time(s)": 10
    }
]